SENTINEL-6              
1 46984U 20086A   23270.10076397 -.00000059  00000+0  74372-5 0  9996
2 46984  66.0432  39.7773 0007850 268.0004  92.0112 12.80929915133132
